{
 "generated_at": "2026-07-11T07:11:30Z",
 "sources": [
  {
   "name": "CelesTrak",
   "url": "https://celestrak.org/NORAD/elements/",
   "license": "frei verfügbar; Attribution. Ursprünglich USSPACECOM/Space-Track."
  },
  {
   "name": "GCAT (J. McDowell, planet4589.org)",
   "url": "https://planet4589.org/space/gcat/",
   "license": "CC-BY 4.0"
  }
 ],
 "satellites": [
  {
   "norad": 68835,
   "name": "PRSC-E03",
   "intl": "2026-092A",
   "group": "resource",
   "gcat": {
    "class": "C",
    "category": "IMG",
    "owner": "SUPA",
    "state": "PK"
   },
   "omm": {
    "OBJECT_NAME": "PRSC-E03",
    "OBJECT_ID": "2026-092A",
    "EPOCH": "2026-07-10T18:45:04.250016",
    "MEAN_MOTION": 15.06795926,
    "ECCENTRICITY": 0.0004502,
    "INCLINATION": 38.0023,
    "RA_OF_ASC_NODE": 310.5396,
    "ARG_OF_PERICENTER": 223.4596,
    "MEAN_ANOMALY": 136.5811,
    "EPHEMERIS_TYPE": 0,
    "CLASSIFICATION_TYPE": "U",
    "NORAD_CAT_ID": 68835,
    "ELEMENT_SET_NO": 999,
    "REV_AT_EPOCH": 1151,
    "BSTAR": 0.00011293,
    "MEAN_MOTION_DOT": 0.00001604,
    "MEAN_MOTION_DDOT": 0
   }
  },
  {
   "norad": 62725,
   "name": "PRSC-EO1",
   "intl": "2025-012A",
   "group": "resource",
   "gcat": {
    "class": "C",
    "category": "IMG",
    "owner": "JHQJ/YINHE",
    "state": "CN"
   },
   "omm": {
    "OBJECT_NAME": "PRSC-EO1",
    "OBJECT_ID": "2025-012A",
    "EPOCH": "2026-07-10T20:40:18.596640",
    "MEAN_MOTION": 15.17748538,
    "ECCENTRICITY": 0.000659,
    "INCLINATION": 97.4221,
    "RA_OF_ASC_NODE": 263.8575,
    "ARG_OF_PERICENTER": 162.5889,
    "MEAN_ANOMALY": 197.5572,
    "EPHEMERIS_TYPE": 0,
    "CLASSIFICATION_TYPE": "U",
    "NORAD_CAT_ID": 62725,
    "ELEMENT_SET_NO": 999,
    "REV_AT_EPOCH": 8178,
    "BSTAR": 0.00022186,
    "MEAN_MOTION_DOT": 0.00004414,
    "MEAN_MOTION_DDOT": 0
   }
  },
  {
   "norad": 65055,
   "name": "PRSC-S1",
   "intl": "2025-164A",
   "group": "resource",
   "gcat": {
    "class": "C",
    "category": "IMG-R",
    "owner": "SUPA",
    "state": "PK"
   },
   "omm": {
    "OBJECT_NAME": "PRSC-S1",
    "OBJECT_ID": "2025-164A",
    "EPOCH": "2026-07-10T20:44:43.967328",
    "MEAN_MOTION": 15.06613581,
    "ECCENTRICITY": 0.0006017,
    "INCLINATION": 41.129,
    "RA_OF_ASC_NODE": 154.4429,
    "ARG_OF_PERICENTER": 169.4007,
    "MEAN_ANOMALY": 190.6935,
    "EPHEMERIS_TYPE": 0,
    "CLASSIFICATION_TYPE": "U",
    "NORAD_CAT_ID": 65055,
    "ELEMENT_SET_NO": 999,
    "REV_AT_EPOCH": 5200,
    "BSTAR": 0.00015409,
    "MEAN_MOTION_DOT": 0.00002146,
    "MEAN_MOTION_DDOT": 0
   }
  },
  {
   "norad": 64055,
   "name": "QPS-SAR-10 (WADATSUMI-I)",
   "intl": "2025-104A",
   "group": "sar",
   "gcat": {
    "class": "B",
    "category": "IMG-R",
    "owner": "QPS",
    "state": "J"
   },
   "omm": {
    "OBJECT_NAME": "QPS-SAR-10 (WADATSUMI-I)",
    "OBJECT_ID": "2025-104A",
    "EPOCH": "2026-07-10T20:44:00.006144",
    "MEAN_MOTION": 15.01959611,
    "ECCENTRICITY": 0.0011961,
    "INCLINATION": 42.0025,
    "RA_OF_ASC_NODE": 148.3722,
    "ARG_OF_PERICENTER": 138.2234,
    "MEAN_ANOMALY": 221.9507,
    "EPHEMERIS_TYPE": 0,
    "CLASSIFICATION_TYPE": "U",
    "NORAD_CAT_ID": 64055,
    "ELEMENT_SET_NO": 999,
    "REV_AT_EPOCH": 6299,
    "BSTAR": 0.00021875,
    "MEAN_MOTION_DOT": 0.00002728,
    "MEAN_MOTION_DDOT": 0
   }
  },
  {
   "norad": 64340,
   "name": "QPS-SAR-11 (YAMATSUMI-I)",
   "intl": "2025-125A",
   "group": "sar",
   "gcat": {
    "class": "B",
    "category": "IMG-R",
    "owner": "QPS",
    "state": "J"
   },
   "omm": {
    "OBJECT_NAME": "QPS-SAR-11 (YAMATSUMI-I)",
    "OBJECT_ID": "2025-125A",
    "EPOCH": "2026-07-10T01:41:52.672992",
    "MEAN_MOTION": 15.01805715,
    "ECCENTRICITY": 0.00114761,
    "INCLINATION": 42.0085,
    "RA_OF_ASC_NODE": 65.5813,
    "ARG_OF_PERICENTER": 275.0039,
    "MEAN_ANOMALY": 84.9477,
    "EPHEMERIS_TYPE": 0,
    "CLASSIFICATION_TYPE": "U",
    "NORAD_CAT_ID": 64340,
    "ELEMENT_SET_NO": 999,
    "REV_AT_EPOCH": 5906,
    "BSTAR": 0.00023551687,
    "MEAN_MOTION_DOT": 0.00002939,
    "MEAN_MOTION_DDOT": 0
   }
  },
  {
   "norad": 65116,
   "name": "QPS-SAR-12 (KUSHINADA-I)",
   "intl": "2025-169A",
   "group": "sar",
   "gcat": {
    "class": "B",
    "category": "IMG-R",
    "owner": "QPS",
    "state": "J"
   },
   "omm": {
    "OBJECT_NAME": "QPS-SAR-12 (KUSHINADA-I)",
    "OBJECT_ID": "2025-169A",
    "EPOCH": "2026-07-10T14:17:17.585088",
    "MEAN_MOTION": 15.01048238,
    "ECCENTRICITY": 0.0007435,
    "INCLINATION": 42.0108,
    "RA_OF_ASC_NODE": 247.0599,
    "ARG_OF_PERICENTER": 358.018,
    "MEAN_ANOMALY": 2.0615,
    "EPHEMERIS_TYPE": 0,
    "CLASSIFICATION_TYPE": "U",
    "NORAD_CAT_ID": 65116,
    "ELEMENT_SET_NO": 999,
    "REV_AT_EPOCH": 5093,
    "BSTAR": 0.00019238,
    "MEAN_MOTION_DOT": 0.00002315,
    "MEAN_MOTION_DDOT": 0
   }
  },
  {
   "norad": 66316,
   "name": "QPS-SAR-14 (YACHIHOKO-I)",
   "intl": "2025-252A",
   "group": "sar",
   "gcat": {
    "class": "B",
    "category": "IMG-R",
    "owner": "QPS",
    "state": "J"
   },
   "omm": {
    "OBJECT_NAME": "QPS-SAR-14 (YACHIHOKO-I)",
    "OBJECT_ID": "2025-252A",
    "EPOCH": "2026-07-10T12:05:38.523840",
    "MEAN_MOTION": 14.99793619,
    "ECCENTRICITY": 0.0004792,
    "INCLINATION": 42.0045,
    "RA_OF_ASC_NODE": 3.6201,
    "ARG_OF_PERICENTER": 34.7675,
    "MEAN_ANOMALY": 325.3463,
    "EPHEMERIS_TYPE": 0,
    "CLASSIFICATION_TYPE": "U",
    "NORAD_CAT_ID": 66316,
    "ELEMENT_SET_NO": 999,
    "REV_AT_EPOCH": 3701,
    "BSTAR": 0.00022135,
    "MEAN_MOTION_DOT": 0.00002601,
    "MEAN_MOTION_DDOT": 0
   }
  },
  {
   "norad": 67228,
   "name": "QPS-SAR-15 (SUKUNAMI-I)",
   "intl": "2025-307A",
   "group": "sar",
   "gcat": {
    "class": "B",
    "category": "IMG-R",
    "owner": "QPS",
    "state": "J"
   },
   "omm": {
    "OBJECT_NAME": "QPS-SAR-15 (SUKUNAMI-I)",
    "OBJECT_ID": "2025-307A",
    "EPOCH": "2026-07-10T03:49:02.970624",
    "MEAN_MOTION": 14.99170338,
    "ECCENTRICITY": 0.00095096,
    "INCLINATION": 42.006,
    "RA_OF_ASC_NODE": 101.7313,
    "ARG_OF_PERICENTER": 152.7752,
    "MEAN_ANOMALY": 207.3574,
    "EPHEMERIS_TYPE": 0,
    "CLASSIFICATION_TYPE": "U",
    "NORAD_CAT_ID": 67228,
    "ELEMENT_SET_NO": 999,
    "REV_AT_EPOCH": 3013,
    "BSTAR": 0.00024226912,
    "MEAN_MOTION_DOT": 0.00002817,
    "MEAN_MOTION_DDOT": 0
   }
  },
  {
   "norad": 58578,
   "name": "QPS-SAR-5 (TSUKUYOMI-I)",
   "intl": "2023-196A",
   "group": "sar",
   "gcat": {
    "class": "B",
    "category": "IMG-R",
    "owner": "QPS",
    "state": "J"
   },
   "omm": {
    "OBJECT_NAME": "QPS-SAR-5 (TSUKUYOMI-I)",
    "OBJECT_ID": "2023-196A",
    "EPOCH": "2026-07-10T20:20:17.414592",
    "MEAN_MOTION": 15.23130239,
    "ECCENTRICITY": 0.0025163,
    "INCLINATION": 42.0088,
    "RA_OF_ASC_NODE": 241.099,
    "ARG_OF_PERICENTER": 79.9497,
    "MEAN_ANOMALY": 280.4174,
    "EPHEMERIS_TYPE": 0,
    "CLASSIFICATION_TYPE": "U",
    "NORAD_CAT_ID": 58578,
    "ELEMENT_SET_NO": 999,
    "REV_AT_EPOCH": 14185,
    "BSTAR": 0.00027924,
    "MEAN_MOTION_DOT": 0.0000655,
    "MEAN_MOTION_DDOT": 0
   }
  },
  {
   "norad": 59447,
   "name": "QPS-SAR-7 (TSUKUYOMI-II)",
   "intl": "2024-066F",
   "group": "sar",
   "gcat": {
    "class": "B",
    "category": "IMG-R",
    "owner": "QPS",
    "state": "J"
   },
   "omm": {
    "OBJECT_NAME": "QPS-SAR-7 (TSUKUYOMI-II)",
    "OBJECT_ID": "2024-066F",
    "EPOCH": "2026-07-10T20:49:44.102784",
    "MEAN_MOTION": 15.09211434,
    "ECCENTRICITY": 0.0000762,
    "INCLINATION": 45.6032,
    "RA_OF_ASC_NODE": 121.0289,
    "ARG_OF_PERICENTER": 98.9542,
    "MEAN_ANOMALY": 261.1429,
    "EPHEMERIS_TYPE": 0,
    "CLASSIFICATION_TYPE": "U",
    "NORAD_CAT_ID": 59447,
    "ELEMENT_SET_NO": 999,
    "REV_AT_EPOCH": 12380,
    "BSTAR": 0.00029799,
    "MEAN_MOTION_DOT": 0.00004563,
    "MEAN_MOTION_DDOT": 0
   }
  }
 ]
}
