QPS-SAR-5 (TSUKUYOMI-I) 
1 58578U 23196A   26191.84742378  .00006550  00000+0  27924-3 0  9998
2 58578  42.0088 241.0990 0025163  79.9497 280.4174 15.23130239141858
QPS-SAR-7 (TSUKUYOMI-II)
1 59447U 24066F   26191.86787156  .00004563  00000+0  29799-3 0  9990
2 59447  45.6032 121.0289 0000762  98.9542 261.1429 15.09211434123805
PRSC-EO1                
1 62725U 25012A   26191.86132635  .00004414  00000+0  22186-3 0  9999
2 62725  97.4221 263.8575 0006590 162.5889 197.5572 15.17748538 81783
QPS-SAR-10 (WADATSUMI-I)
1 64055U 25104A   26191.86388896  .00002728  00000+0  21875-3 0  9991
2 64055  42.0025 148.3722 0011961 138.2234 221.9507 15.01959611 62993
QPS-SAR-11 (YAMATSUMI-I)
1 64340U 25125A   26191.07074853  .00002939  00000+0  23552-3 0  9997
2 64340  42.0085  65.5813 0011476 275.0039  84.9477 15.01805715 59063
PRSC-S1                 
1 65055U 25164A   26191.86439777  .00002146  00000+0  15409-3 0  9993
2 65055  41.1290 154.4429 0006017 169.4007 190.6935 15.06613581 52006
QPS-SAR-12 (KUSHINADA-I)
1 65116U 25169A   26191.59534242  .00002315  00000+0  19238-3 0  9991
2 65116  42.0108 247.0599 0007435 358.0180   2.0615 15.01048238 50939
QPS-SAR-14 (YACHIHOKO-I)
1 66316U 25252A   26191.50391810  .00002601  00000+0  22135-3 0  9998
2 66316  42.0045   3.6201 0004792  34.7675 325.3463 14.99793619 37010
QPS-SAR-15 (SUKUNAMI-I) 
1 67228U 25307A   26191.15906216  .00002817  00000+0  24227-3 0  9998
2 67228  42.0060 101.7313 0009509 152.7752 207.3574 14.99170338 30137
PRSC-E03                
1 68835U 26092A   26191.78129919  .00001604  00000+0  11293-3 0  9993
2 68835  38.0023 310.5396 0004502 223.4596 136.5811 15.06795926 11510
